IRIDIUM 150             
1 43257U 18030J   24071.83304761  .00000077  00000+0  20497-4 0  9998
2 43257  86.3914 276.2249 0002409  92.8473 267.2999 14.34218206311598
IRIDIUM 143             
1 43258U 18030K   24072.51170636  .00000043  00000+0  83878-5 0  9993
2 43258  86.3916 276.0009 0002536  86.3675 273.7811 14.34217717311632
IRIDIUM 161             
1 43478U 18047C   24072.05191060  .00000224  00000+0  60652-4 0  9993
2 43478  86.4435  74.1541 0002258  90.6654 269.4805 14.43298491305835
IRIDIUM 152             
1 43479U 18047D   24072.06581286  .00000018  00000+0 -63062-6 0  9990
2 43479  86.3908  74.0080 0002214  87.6596 272.4853 14.34217761303948
IRIDIUM 147             
1 43480U 18047E   24072.07215395  .00000171  00000+0  53932-4 0  9990
2 43480  86.3913  73.9961 0002093  94.0717 266.0718 14.34217253303938
IRIDIUM 110             
1 43481U 18047F   24072.07849776  .00000054  00000+0  12187-4 0  9994
2 43481  86.3912  74.0635 0002026 100.3834 259.7590 14.34217668303921
IRIDIUM 162             
1 43482U 18047G   24072.46182806  .00000216  00000+0  58245-4 0  9997
2 43482  86.4434  73.8838 0002169  90.2783 269.8667 14.43277358305888
IRIDIUM 160             
1 43569U 18061A   24071.88479589  .00000165  00000+0  51769-4 0  9998
2 43569  86.3969  42.4967 0002001  77.2661 282.8759 14.34217187294794
